{
  "regions": [
    {
      "id": "001",
      "name": "北海道"
    },
    {
      "id": "002",
      "name": "青森"
    },
    {
      "id": "003",
      "name": "岩手"
    },
    {
      "id": "004",
      "name": "宮城"
    },
    {
      "id": "005",
      "name": "秋田"
    },
    {
      "id": "006",
      "name": "山形"
    },
    {
      "id": "007",
      "name": "福島"
    },
    {
      "id": "008",
      "name": "茨城"
    },
    {
      "id": "009",
      "name": "栃木"
    },
    {
      "id": "010",
      "name": "群馬"
    },
    {
      "id": "011",
      "name": "埼玉"
    },
    {
      "id": "012",
      "name": "千葉"
    },
    {
      "id": "013",
      "name": "東京"
    },
    {
      "id": "014",
      "name": "神奈川"
    },
    {
      "id": "015",
      "name": "新潟"
    },
    {
      "id": "016",
      "name": "富山"
    },
    {
      "id": "017",
      "name": "石川"
    },
    {
      "id": "018",
      "name": "福井"
    },
    {
      "id": "019",
      "name": "山梨"
    },
    {
      "id": "020",
      "name": "長野"
    },
    {
      "id": "021",
      "name": "岐阜"
    },
    {
      "id": "022",
      "name": "静岡"
    },
    {
      "id": "023",
      "name": "愛知"
    },
    {
      "id": "024",
      "name": "三重"
    },
    {
      "id": "025",
      "name": "滋賀"
    },
    {
      "id": "026",
      "name": "京都"
    },
    {
      "id": "027",
      "name": "大阪"
    },
    {
      "id": "028",
      "name": "兵庫"
    },
    {
      "id": "029",
      "name": "奈良"
    },
    {
      "id": "030",
      "name": "和歌山"
    },
    {
      "id": "031",
      "name": "鳥取"
    },
    {
      "id": "032",
      "name": "島根"
    },
    {
      "id": "033",
      "name": "岡山"
    },
    {
      "id": "034",
      "name": "広島"
    },
    {
      "id": "035",
      "name": "山口"
    },
    {
      "id": "036",
      "name": "徳島"
    },
    {
      "id": "037",
      "name": "香川"
    },
    {
      "id": "038",
      "name": "愛媛"
    },
    {
      "id": "039",
      "name": "高知"
    },
    {
      "id": "040",
      "name": "福岡"
    },
    {
      "id": "041",
      "name": "佐賀"
    },
    {
      "id": "042",
      "name": "長崎"
    },
    {
      "id": "043",
      "name": "熊本"
    },
    {
      "id": "044",
      "name": "大分"
    },
    {
      "id": "045",
      "name": "宮崎"
    },
    {
      "id": "046",
      "name": "鹿児島"
    },
    {
      "id": "047",
      "name": "沖縄"
    },
    {
      "id": "048",
      "name": "新宿"
    },
    {
      "id": "049",
      "name": "渋谷"
    },
    {
      "id": "050",
      "name": "千代田区"
    },
    {
      "id": "051",
      "name": "台東区"
    },
    {
      "id": "052",
      "name": "豊島区"
    },
    {
      "id": "053",
      "name": "世田谷"
    },
    {
      "id": "054",
      "name": "目黒"
    },
    {
      "id": "055",
      "name": "杉並"
    },
    {
      "id": "056",
      "name": "品川"
    },
    {
      "id": "057",
      "name": "葛飾"
    },
    {
      "id": "058",
      "name": "八王子"
    },
    {
      "id": "059",
      "name": "立川"
    },
    {
      "id": "060",
      "name": "武蔵野"
    },
    {
      "id": "061",
      "name": "三鷹"
    },
    {
      "id": "062",
      "name": "町田"
    },
    {
      "id": "063",
      "name": "調布"
    }
  ],
  "clinics": [
    {
      "id": "1",
      "code": "dio",
      "name": "ディオクリニック",
      "regions": [
        "001",
        "004",
        "011",
        "012",
        "013",
        "014",
        "023",
        "026",
        "027",
        "028",
        "034",
        "040",
        "048",
        "049",
        "050",
        "051",
        "052",
        "059"
      ],
      "storeCount": 23,
      "bodyParts": [
        "face",
        "upperarm",
        "stomach",
        "buttocks",
        "thigh"
      ],
      "features": "419万通りのメニューから選べるオーダーメイド医療ダイエット",
      "stores": [
        {
          "id": "dio_001",
          "name": "札幌院",
          "address": "北海道札幌市中央区北四条西2丁目1-18 邦洋札幌Ｎ4・2ビル 2階",
          "zipcode": "〒060-0004",
          "access": "地下鉄さっぽろ駅徒歩1分 JR札幌駅徒歩4分"
        },
        {
          "id": "dio_002",
          "name": "仙台院",
          "address": "宮城県仙台市青葉区中央3丁目1-3 aune仙台 4階",
          "zipcode": "〒980-0021",
          "access": "仙台駅徒歩3分 あおば通駅徒歩2分"
        },
        {
          "id": "dio_003",
          "name": "銀座有楽町院",
          "address": "東京都千代田区有楽町２丁目３−５ AUNE有楽町 ９F",
          "zipcode": "〒100-0006",
          "access": "日比谷駅A1出口直結 銀座駅C1出口徒歩2分 有楽町駅銀座口徒歩3分"
        },
        {
          "id": "dio_004",
          "name": "立川院",
          "address": "東京都立川市柴崎町2-3-18 粂川第二ビル 4F",
          "zipcode": "〒190-0023",
          "access": "立川南駅1番出口から徒歩2分、立川駅南口から徒歩4分"
        },
        {
          "id": "dio_005",
          "name": "銀座院",
          "address": "東京都中央区銀座五丁目９番１１号 銀座ファゼンダビル４階",
          "zipcode": "〒104-0061",
          "access": "銀座駅A3出口より徒歩2分"
        },
        {
          "id": "dio_006",
          "name": "上野院",
          "address": "東京都台東区東上野２丁目１８−６ 常磐ビル 地下1階",
          "zipcode": "〒110-0015",
          "access": "各線上野駅より徒歩1分"
        },
        {
          "id": "dio_007",
          "name": "池袋院",
          "address": "東京都豊島区東池袋1丁目30−6 セイコーサンシャインビルⅫ 8F",
          "zipcode": "〒170-0013",
          "access": "JR池袋駅東口より徒歩5分"
        },
        {
          "id": "dio_008",
          "name": "新宿院",
          "address": "東京都新宿区新宿4丁目2-23 新四curumuビル 地下1階",
          "zipcode": "〒160-0022",
          "access": "新宿駅南東口より徒歩3分、新宿三丁目駅直通"
        },
        {
          "id": "dio_009",
          "name": "渋谷院",
          "address": "東京都渋谷区宇田川町33-1グランド東京渋谷ビル4階",
          "zipcode": "〒150-0042",
          "access": "JR渋谷駅ハチ公口より徒歩5分・東京メトロ渋谷駅A2出口より徒歩2分"
        },
        {
          "id": "dio_010",
          "name": "大宮院",
          "address": "埼玉県さいたま市大宮区宮町2-28 あじせんビル 5F",
          "zipcode": "〒330-0802",
          "access": "大宮駅東口より徒歩5分"
        },
        {
          "id": "dio_011",
          "name": "横浜院",
          "address": "\"神奈川県横浜市西区南幸2-18-3 LUCID SQUARE Yokohama West2F",
          "zipcode": "〒220-0005",
          "access": "3F\""
        },
        {
          "id": "dio_012",
          "name": "川崎院",
          "address": "神奈川県川崎市川崎区駅前本町２６−４ ラウンドクロス川崎 ４Ｆ",
          "zipcode": "〒210-0007",
          "access": "JR川崎駅中央東口より徒歩2分"
        },
        {
          "id": "dio_013",
          "name": "千葉駅前院",
          "address": "千葉県千葉市中央区富士見2丁目7-4 富士見ハイネスビル 5F",
          "zipcode": "〒260-0015",
          "access": "JR千葉駅東口より徒歩5分"
        },
        {
          "id": "dio_014",
          "name": "名古屋院",
          "address": "愛知県名古屋市中村区名駅南1丁目16-28EDGE名駅地下1階",
          "zipcode": "〒450-0003",
          "access": "各線名古屋駅広小路口 徒歩7分"
        },
        {
          "id": "dio_015",
          "name": "栄院",
          "address": "愛知県名古屋市中区栄3-27-1 SAKAE PLACE B1F",
          "zipcode": "〒460-0008",
          "access": "矢場町駅徒歩5分 栄駅徒歩9分"
        },
        {
          "id": "dio_016",
          "name": "京都院",
          "address": "京都市下京区河原町通四条下ル順風町 305 番地 四条河原町ビル4階",
          "zipcode": "〒600-8021",
          "access": "京都河原町駅2番出口から徒歩1分"
        },
        {
          "id": "dio_017",
          "name": "梅田院",
          "address": "大阪府大阪市北区鶴野町4番11号 朝日プラザ梅田 1階",
          "zipcode": "〒530-0014",
          "access": "大阪梅田駅より徒歩6分 中崎町駅より徒歩6分"
        },
        {
          "id": "dio_018",
          "name": "神戸三宮院",
          "address": "兵庫県神戸市中央区元町通1丁目7-1 VEGAビル 5F",
          "zipcode": "〒650-0022",
          "access": "元町駅徒歩3分 三宮・神戸三宮駅徒歩11分"
        },
        {
          "id": "dio_019",
          "name": "天王寺院",
          "address": "大阪府大阪市阿倍野区阿倍野筋1-5-1 あべのルシアス 15F",
          "zipcode": "〒545-0052",
          "access": "天王寺駅14番出口徒歩3分"
        },
        {
          "id": "dio_020",
          "name": "大阪梅田院",
          "address": "大阪府大阪市北区曽根崎2-13-17 曽根崎渡辺ビル 3F",
          "zipcode": "〒530-0057",
          "access": "大阪駅徒歩7分 東梅田駅徒歩1分"
        },
        {
          "id": "dio_021",
          "name": "なんば心斎橋院",
          "address": "大阪府大阪市中央区心斎橋筋 2丁目5-5 Shinsaibashi GATE 8階",
          "zipcode": "〒542-0085",
          "access": "なんば駅14番出口から徒歩2分"
        },
        {
          "id": "dio_022",
          "name": "広島院",
          "address": "広島県広島市中区紙屋町2-3-20 ソシオスクエア紙屋町ビル 3F",
          "zipcode": "〒730-0031",
          "access": "本通駅徒歩2分 紙屋町西駅徒歩4分"
        },
        {
          "id": "dio_023",
          "name": "福岡天神院",
          "address": "福岡県福岡市中央区天神二丁目8番22号 Ｇビル天神西通り01 3階",
          "zipcode": "〒810-0001",
          "access": "天神駅3番出口徒歩2分"
        }
      ]
    },
    {
      "id": "2",
      "code": "eminal",
      "name": "エミナルクリニック",
      "regions": [
        "001",
        "002",
        "003",
        "004",
        "005",
        "007",
        "008",
        "009",
        "010",
        "011",
        "012",
        "013",
        "014",
        "015",
        "016",
        "017",
        "018",
        "020",
        "021",
        "022",
        "023",
        "024",
        "025",
        "026",
        "027",
        "028",
        "029",
        "030",
        "033",
        "034",
        "035",
        "036",
        "037",
        "038",
        "039",
        "040",
        "042",
        "043",
        "044",
        "045",
        "046",
        "047",
        "048",
        "049",
        "051",
        "052",
        "059",
        "062"
      ],
      "storeCount": 63,
      "bodyParts": [
        "upperarm",
        "stomach",
        "buttocks",
        "thigh"
      ],
      "features": "注射が苦手な方も安心！医療機器メインの痩身プログラム",
      "stores": [
        {
          "id": "eminal_001",
          "name": "札幌院",
          "address": "北海道札幌市中央区北1条西3丁目3-11 桂和北1条ビル9階・10階",
          "zipcode": "〒060-0001",
          "access": "大通駅7番出口より徒歩5分 または札幌駅前通地下歩行空間9番出口より徒歩1分"
        },
        {
          "id": "eminal_002",
          "name": "旭川院",
          "address": "北海道旭川市1条通10丁目342-2スペーシア旭川一条通3階",
          "zipcode": "〒070-0031",
          "access": "JR旭川駅から徒歩5分"
        },
        {
          "id": "eminal_003",
          "name": "青森院",
          "address": "青森県青森市中央1丁目25-9AQUA青森中央ビル3階",
          "zipcode": "〒030-0822",
          "access": "青森駅 徒歩22分"
        },
        {
          "id": "eminal_004",
          "name": "盛岡院",
          "address": "岩手県盛岡市中央通1丁目9-11CUBE映画館通りビル2階",
          "zipcode": "〒020-0021",
          "access": "JR東北本線 盛岡駅から徒歩13分"
        },
        {
          "id": "eminal_005",
          "name": "仙台院",
          "address": "宮城県仙台市青葉区一番町3-9-13 DATE ONEビル5階",
          "zipcode": "〒980-0811",
          "access": "広瀬通駅徒歩5分"
        },
        {
          "id": "eminal_006",
          "name": "秋田院",
          "address": "秋田県秋田市中通2-4-22Flat秋田1階・2階",
          "zipcode": "郵便番号が見つかりません",
          "access": "JR秋田駅から徒歩5分"
        },
        {
          "id": "eminal_007",
          "name": "郡山院",
          "address": "福島県郡山市中町7-17 かねいビル1F",
          "zipcode": "〒963-8004",
          "access": "JR郡山駅より徒歩5分"
        },
        {
          "id": "eminal_008",
          "name": "水戸院",
          "address": "茨城県水戸市宮町1丁目7-20ホテルテラスザガーデン水戸1階",
          "zipcode": "〒310-0015",
          "access": "JR水戸駅から徒歩すぐ"
        },
        {
          "id": "eminal_009",
          "name": "宇都宮院",
          "address": "栃木県宇都宮市江野町6-10 天心堂ビル5F",
          "zipcode": "〒320-0802",
          "access": "東武宇都宮駅東口徒歩約1分"
        },
        {
          "id": "eminal_010",
          "name": "高崎院",
          "address": "群馬県高崎市宮元町227高崎ステージビル3階",
          "zipcode": "〒370-0828",
          "access": "JR高崎駅から徒歩11分"
        },
        {
          "id": "eminal_011",
          "name": "大宮院",
          "address": "埼玉県さいたま市大宮区仲町1丁目54-3 ビジョナリーⅢ 5F",
          "zipcode": "〒330-0845",
          "access": "JR大宮駅東口より徒歩4分"
        },
        {
          "id": "eminal_012",
          "name": "千葉院",
          "address": "千葉県千葉市中央区富士見1-14-11 常盤ビル7階",
          "zipcode": "〒260-0015",
          "access": "JR千葉駅徒歩5分"
        },
        {
          "id": "eminal_013",
          "name": "船橋院",
          "address": "千葉県船橋市本町4-2-9 菅野屋船橋ビル3F",
          "zipcode": "〒273-0005",
          "access": "東武/JR船橋駅南口より徒歩2分 または京成船橋駅より徒歩5分"
        },
        {
          "id": "eminal_014",
          "name": "新宿西口院",
          "address": "東京都新宿区西新宿1-4-1 プリンスビル7F",
          "zipcode": "〒160-0023",
          "access": "JR新宿駅 徒歩3分"
        },
        {
          "id": "eminal_015",
          "name": "新宿院（施術専門院）",
          "address": "東京都新宿区新宿3丁目1－16京王新宿追分第二ビル3階",
          "zipcode": "〒160-0022",
          "access": "JR「新宿駅」南口徒歩4分"
        },
        {
          "id": "eminal_016",
          "name": "渋谷駅前院",
          "address": "東京都 渋谷区道玄坂1-3-1 飯島ビル8F",
          "zipcode": "〒150-0043",
          "access": "JR渋谷駅ハチ公口から徒歩1分"
        },
        {
          "id": "eminal_017",
          "name": "渋谷院（施術専門院）",
          "address": "東京都 渋谷区渋谷2丁目22－16 渋谷TRビル5階",
          "zipcode": "〒150-0002",
          "access": "JR渋谷駅から徒歩2分"
        },
        {
          "id": "eminal_018",
          "name": "銀座院",
          "address": "東京都中央区銀座2-8-12 クローバー銀座 8F",
          "zipcode": "〒104-0061",
          "access": "銀座駅徒歩3分"
        },
        {
          "id": "eminal_019",
          "name": "池袋院",
          "address": "東京都豊島区南池袋3-13-10 ISP第3ビル4F",
          "zipcode": "〒171-0022",
          "access": "池袋駅東口徒歩5分"
        },
        {
          "id": "eminal_020",
          "name": "池袋東口院",
          "address": "豊島区南池袋2丁目27-8 第10野萩ビル7階",
          "zipcode": "〒171-0022",
          "access": "池袋駅東口徒歩5分"
        },
        {
          "id": "eminal_021",
          "name": "上野院",
          "address": "東京都台東区上野7丁目3-2 TSDビル6階",
          "zipcode": "〒110-0005",
          "access": "JR上野駅より徒歩2分"
        },
        {
          "id": "eminal_022",
          "name": "立川院",
          "address": "東京都立川市曙町1丁目-14-17籏野ビル5階",
          "zipcode": "〒190-0012",
          "access": "立川駅から徒歩4分"
        },
        {
          "id": "eminal_023",
          "name": "町田院",
          "address": "東京都町田市原町田6丁目7-8 ティップス町田ビル3階",
          "zipcode": "〒194-0013",
          "access": "JR横浜線 町田駅徒歩5分"
        },
        {
          "id": "eminal_024",
          "name": "横浜院",
          "address": "神奈川県横浜市西区北幸1丁目1-8 エキニア横浜7階(707)",
          "zipcode": "〒220-0004",
          "access": "JR横浜駅より徒歩1分"
        },
        {
          "id": "eminal_025",
          "name": "川崎院",
          "address": "神奈川県川崎市川崎区砂子2-4-17 Cassia Kawasaki Residence 2階",
          "zipcode": "〒210-0006",
          "access": "JR川崎駅から徒歩5分"
        },
        {
          "id": "eminal_026",
          "name": "新潟院",
          "address": "新潟県新潟市中央区万代1丁目1-26 万代ビル4F",
          "zipcode": "〒950-0088",
          "access": "JR新潟駅 徒歩7分"
        },
        {
          "id": "eminal_027",
          "name": "富山院",
          "address": "富山県富山市新富町2-4-25 カーニープレイス富山3F",
          "zipcode": "〒930-0002",
          "access": "JR富山駅 徒歩6分"
        },
        {
          "id": "eminal_028",
          "name": "金沢院",
          "address": "石川県金沢市本町1丁目5番3号 リファーレ2F",
          "zipcode": "〒920-0853",
          "access": "JR金沢駅から徒歩6分"
        },
        {
          "id": "eminal_029",
          "name": "福井院",
          "address": "福井県福井市大手3丁目4番1号福井放送会館 地下1階",
          "zipcode": "〒910-0005",
          "access": "JR福井駅から徒歩5分"
        },
        {
          "id": "eminal_030",
          "name": "長野院",
          "address": "長野県長野市大字南長野末広町1356 NACS末広3階",
          "zipcode": "〒380-0825",
          "access": "長野駅より徒歩2分"
        },
        {
          "id": "eminal_031",
          "name": "岐阜院",
          "address": "岐阜県岐阜市神田町6丁目12 シグザ神田ビル6階",
          "zipcode": "〒500-8833",
          "access": "名鉄岐阜駅より徒歩8分 またはJR岐阜駅より徒歩12分"
        },
        {
          "id": "eminal_032",
          "name": "静岡院",
          "address": "静岡県静岡市葵区呉服町2丁目8番1号 アイランドプラザビル 3F",
          "zipcode": "〒420-0031",
          "access": "JR静岡駅紺屋町地下街K8出口から徒歩2分 または静岡鉄道新静岡駅から徒歩4分"
        },
        {
          "id": "eminal_033",
          "name": "浜松院",
          "address": "静岡県浜松市中央区千歳町70-1 funビルディング3階",
          "zipcode": "〒430-0934",
          "access": "JR浜松駅から徒歩6分"
        },
        {
          "id": "eminal_034",
          "name": "名古屋院",
          "address": "愛知県名古屋市中村区名駅3丁目20番1号 サンシャイン名駅ビル4F",
          "zipcode": "〒450-0002",
          "access": "地下鉄桜通線 国際センター駅1番出口から徒歩1分"
        },
        {
          "id": "eminal_035",
          "name": "豊橋院（施術専門院）",
          "address": "愛知県豊橋市広小路1-39 豊栄ビルB1F",
          "zipcode": "〒440-0881",
          "access": "豊橋鉄道東田本線駅前駅から徒歩で1分"
        },
        {
          "id": "eminal_036",
          "name": "四日市院",
          "address": "三重県四日市市諏訪栄町10－5 ランドマークアーバンビル2・5階 （※新規カウンセリングは2階）",
          "zipcode": "〒510-0086",
          "access": "近鉄四日市駅から徒歩1分"
        },
        {
          "id": "eminal_037",
          "name": "彦根院",
          "address": "滋賀県彦根市高宮町1320-6 nonoHana南彦根1階",
          "zipcode": "〒522-0043",
          "access": "JR南彦根駅から徒歩5分"
        },
        {
          "id": "eminal_038",
          "name": "京都院",
          "address": "京都府京都市下京区四条通麩屋町西入立売東町28 SAKIZO PLAZA5階",
          "zipcode": "〒600-8005",
          "access": "阪急線烏丸駅から徒歩5分"
        },
        {
          "id": "eminal_039",
          "name": "梅田院",
          "address": "大阪府大阪市北区梅田1丁目12-6 E-MA(イーマ)3階",
          "zipcode": "〒530-0001",
          "access": "大阪梅田駅百貨店口から徒歩3分"
        },
        {
          "id": "eminal_040",
          "name": "心斎橋院",
          "address": "大阪府 大阪市中央区西心斎橋2-1-25 心斎橋W-Place 4F",
          "zipcode": "〒542-0086",
          "access": "御堂筋線心斎橋駅より徒歩5分 または四ツ橋線四ツ橋駅より徒歩7分"
        },
        {
          "id": "eminal_041",
          "name": "天王寺院",
          "address": "大阪府大阪市阿倍野区阿倍野筋1丁目5番10号あべのnini2階",
          "zipcode": "〒545-0052",
          "access": "阪堺電気軌道上町線天王寺駅前駅より徒歩2分 またはJR大阪環状線天王寺駅徒歩2分 またはOsaka Metro御堂筋線 天王寺駅 徒歩2分"
        },
        {
          "id": "eminal_042",
          "name": "神戸院",
          "address": "兵庫県神戸市中央区磯上通7-1-19 プログレス神戸4F",
          "zipcode": "〒651-0086",
          "access": "JR三ノ宮駅より徒歩5分 または阪神神戸三宮駅より徒歩6分"
        },
        {
          "id": "eminal_043",
          "name": "姫路院",
          "address": "兵庫県姫路市駅前町247 御幸苑ビル3階",
          "zipcode": "〒670-0927",
          "access": "JR姫路駅から徒歩1分 または山陽電鉄山陽姫路駅から徒歩1分"
        },
        {
          "id": "eminal_044",
          "name": "奈良院",
          "address": "奈良県奈良市高天町38-3 近鉄高天ビル2F",
          "zipcode": "〒630-8241",
          "access": "近鉄奈良駅 徒歩1分"
        },
        {
          "id": "eminal_045",
          "name": "和歌山院",
          "address": "和歌山県和歌山市美園町5-1-8 山榮ビル2階",
          "zipcode": "〒640-8331",
          "access": "和歌山駅徒歩2分"
        },
        {
          "id": "eminal_046",
          "name": "岡山院",
          "address": "岡山県岡山市北区幸町8－20 AQUAテラス幸町4階・5階",
          "zipcode": "〒700-0903",
          "access": "JR岡山駅後楽園口（東口）から徒歩8分"
        },
        {
          "id": "eminal_047",
          "name": "広島院",
          "address": "広島県広島市中区紙屋町2丁目3-4 広中ビル501",
          "zipcode": "〒730-0031",
          "access": "本通駅徒歩3分"
        },
        {
          "id": "eminal_048",
          "name": "山口院",
          "address": "山口県山口市小郡明治1丁目17番5号SMILE新山口ビルⅡ 2階",
          "zipcode": "〒754-0043",
          "access": "新山口駅北口から徒歩5分"
        },
        {
          "id": "eminal_049",
          "name": "徳島院",
          "address": "徳島県徳島市寺島本町東2-29 徳島電気ビル別館3階",
          "zipcode": "〒770-0832",
          "access": "JR徳島駅から徒歩4分"
        },
        {
          "id": "eminal_050",
          "name": "高松院",
          "address": "香川県高松市丸亀町7-16 丸亀町グリーン2F",
          "zipcode": "〒760-0029",
          "access": "瓦町駅徒歩7分"
        },
        {
          "id": "eminal_051",
          "name": "松山院",
          "address": "愛媛県松山市湊町5-4-25 日切ビル4F",
          "zipcode": "〒790-0012",
          "access": "松山市駅 徒歩4分"
        },
        {
          "id": "eminal_052",
          "name": "高知院",
          "address": "高知県高知市本町2丁目2-29 畑山ビル3階",
          "zipcode": "〒780-0870",
          "access": "とさでん交通市内線 大橋通駅 徒歩1分"
        },
        {
          "id": "eminal_053",
          "name": "福岡天神院",
          "address": "福岡県福岡市中央区天神2丁目7番8号 西天神ビル5階",
          "zipcode": "〒810-0001",
          "access": "西鉄福岡天神駅徒歩3分"
        },
        {
          "id": "eminal_054",
          "name": "福岡天神2号院",
          "address": "福岡県福岡市中央区天神2丁目4-12 天神矢野ビル3階",
          "zipcode": "〒810-0001",
          "access": "西鉄福岡天神駅徒歩2分"
        },
        {
          "id": "eminal_055",
          "name": "小倉院",
          "address": "福岡県北九州市小倉北区魚町2丁目3-20 第30エルザビル3F",
          "zipcode": "〒802-0006",
          "access": "平和通り駅から徒歩2分"
        },
        {
          "id": "eminal_056",
          "name": "久留米総合美容外科(連携医療機関)",
          "address": "福岡県久留米市花畑1丁目23－2 西鉄花畑ビル2階 久留米総合美容外科内",
          "zipcode": "〒830-0039",
          "access": "西鉄花畑駅徒歩1分"
        },
        {
          "id": "eminal_057",
          "name": "長崎院",
          "address": "長崎県長崎市浜町3-20 浜町くまビル3階",
          "zipcode": "〒850-0853",
          "access": "観光通り電停から徒歩2分 または浜町アーケード電停から徒歩3分"
        },
        {
          "id": "eminal_058",
          "name": "佐世保院",
          "address": "長崎県佐世保市下京町9-13DKビルⅡ 3階",
          "zipcode": "〒857-0875",
          "access": "佐世保中央駅から徒歩6分"
        },
        {
          "id": "eminal_059",
          "name": "大分院",
          "address": "大分県大分市中央町1-1-20 ニューガイア大分駅前BLDG.7F",
          "zipcode": "〒870-0035",
          "access": "JR大分駅徒歩4分"
        },
        {
          "id": "eminal_060",
          "name": "熊本院",
          "address": "熊本県熊本市中央区手取本町4-17 TETORIHONCHO SAMURAI BLD.7F",
          "zipcode": "〒860-0808",
          "access": "通町筋駅から徒歩4分"
        },
        {
          "id": "eminal_061",
          "name": "宮崎院",
          "address": "宮崎県宮崎市橘通西3-10-36 ニシムラビル4F",
          "zipcode": "〒880-0001",
          "access": "宮崎交通バス「橘通り3丁目」バス停より徒歩3分"
        },
        {
          "id": "eminal_062",
          "name": "鹿児島院",
          "address": "鹿児島県鹿児島市東千石町14-1 巴里屋ビル 8階",
          "zipcode": "〒892-0842",
          "access": "天文館通駅徒歩すぐ"
        },
        {
          "id": "eminal_063",
          "name": "那覇院",
          "address": "沖縄県那覇市東町4-15 幸ビル4階・5階",
          "zipcode": "〒900-0034",
          "access": "ゆいレール旭橋駅より徒歩4分 または那覇バス旭橋駅前バス停すぐ"
        }
      ]
    },
    {
      "id": "3",
      "code": "urara",
      "name": "ウララクリニック",
      "regions": [
        "013",
        "026",
        "048"
      ],
      "storeCount": 2,
      "bodyParts": [
        "face",
        "stomach",
        "buttocks",
        "thigh"
      ],
      "features": "次世代医療テクノロジーで健康的に美しく痩せる",
      "stores": [
        {
          "id": "urara_001",
          "name": "新宿院",
          "address": "東京都新宿区新宿3丁目4番8号京王フレンテ新宿3丁目6階",
          "zipcode": "〒160-0022",
          "access": "東京メトロ副都心線: 新宿三丁目駅より徒歩1分 JR山手線: 新宿駅より徒歩7分"
        },
        {
          "id": "urara_002",
          "name": "銀座院",
          "address": "東京都中央区銀座2丁目11番8号ラウンドクロス銀座2丁目ビル8階",
          "zipcode": "〒104-0061",
          "access": "銀座駅から徒歩5分 銀座一丁目駅から徒歩2分 有楽町駅から徒歩8分 東銀座駅から徒歩1分"
        }
      ]
    },
    {
      "id": "4",
      "code": "lieto",
      "name": "リエートクリニック",
      "regions": [
        "013",
        "026",
        "052"
      ],
      "storeCount": 1,
      "bodyParts": [
        "face",
        "upperarm",
        "stomach",
        "buttocks",
        "thigh"
      ],
      "features": "非侵襲的な施術でダウンタイムなし！即日常生活に戻れます",
      "stores": [
        {
          "id": "lieto_001",
          "name": "池袋院",
          "address": "東京都豊島区南池袋1丁目25-11 第15野萩ビル 9階",
          "zipcode": "〒171-0022",
          "access": "JR線「池袋駅」徒歩1分"
        }
      ]
    },
    {
      "id": "5",
      "code": "sbc",
      "name": "湘南美容クリニック",
      "regions": [
        "001",
        "002",
        "004",
        "005",
        "006",
        "007",
        "008",
        "009",
        "010",
        "011",
        "012",
        "013",
        "014",
        "015",
        "016",
        "017",
        "018",
        "019",
        "020",
        "021",
        "022",
        "023",
        "024",
        "026",
        "027",
        "028",
        "029",
        "030",
        "033",
        "034",
        "035",
        "037",
        "038",
        "039",
        "040",
        "042",
        "043",
        "044",
        "045",
        "046",
        "047",
        "048",
        "049",
        "051",
        "052",
        "053",
        "054",
        "058",
        "059",
        "060",
        "062",
        "063"
      ],
      "storeCount": 124,
      "bodyParts": [
        "face",
        "upperarm",
        "stomach",
        "buttocks",
        "thigh",
        "other"
      ],
      "features": "豊富な脂肪溶解注射メニューで理想のボディデザインを実現",
      "stores": [
        {
          "id": "sbc_001",
          "name": "札幌院",
          "address": "北海道札幌市中央区北5条西2-5 JRタワーオフィスプラザさっぽろ13F",
          "zipcode": "〒060-0005",
          "access": "-"
        },
        {
          "id": "sbc_002",
          "name": "札幌大通院",
          "address": "北海道札幌市中央区北一条西3-3-10 KOKOHOTEL札幌駅前 3階",
          "zipcode": "〒064-0821",
          "access": "-"
        },
        {
          "id": "sbc_003",
          "name": "旭川院",
          "address": "北海道旭川市一条通7丁目47番地1 プレミスト旭川ザ・タワー 2階",
          "zipcode": "〒070-0031",
          "access": "-"
        },
        {
          "id": "sbc_004",
          "name": "青森院",
          "address": "青森県青森市柳川一丁目2番3号 青森駅ビル・ラビナ4階",
          "zipcode": "〒038-0012",
          "access": "-"
        },
        {
          "id": "sbc_005",
          "name": "秋田院",
          "address": "秋田県秋田市 千秋久保田町4-2 秋田オーパ7階",
          "zipcode": "〒010-0874",
          "access": "-"
        },
        {
          "id": "sbc_006",
          "name": "山形院",
          "address": "山形県山形市香澄町一丁目１番１号 エスパル山形 5階",
          "zipcode": "〒990-0039",
          "access": "-"
        },
        {
          "id": "sbc_007",
          "name": "仙台院",
          "address": "宮城県仙台市青葉区中央1ｰ2ｰ3仙台マークワン17階",
          "zipcode": "〒980-0021",
          "access": "-"
        },
        {
          "id": "sbc_008",
          "name": "福島院",
          "address": "福島県福島市栄町6-1 メディアシティエスタ4F",
          "zipcode": "〒960-8031",
          "access": "-"
        },
        {
          "id": "sbc_009",
          "name": "郡山院",
          "address": "福島県郡山市駅前一丁目16番7号 アティ郡山 8階",
          "zipcode": "〒426-0034",
          "access": "-"
        },
        {
          "id": "sbc_010",
          "name": "いわき院",
          "address": "福島県いわき市平字田町120番地 ラトブ3階",
          "zipcode": "〒970-8026",
          "access": "-"
        },
        {
          "id": "sbc_011",
          "name": "宇都宮院",
          "address": "栃木県宇都宮市東宿郷2-4-3 宇都宮大塚ビル3階",
          "zipcode": "〒321-0953",
          "access": "-"
        },
        {
          "id": "sbc_012",
          "name": "高崎院",
          "address": "群馬県高崎市八島町70 ラ・メルセ2階",
          "zipcode": "〒370-0849",
          "access": "-"
        },
        {
          "id": "sbc_013",
          "name": "水戸院",
          "address": "茨城県水戸市宮町1-2-4 水戸駅前マイムビル3F",
          "zipcode": "〒310-0015",
          "access": "-"
        },
        {
          "id": "sbc_014",
          "name": "新宿本院",
          "address": "東京都新宿区西新宿6-5-1 新宿アイランドタワー24F",
          "zipcode": "〒163-1390",
          "access": "-"
        },
        {
          "id": "sbc_015",
          "name": "新宿南口院",
          "address": "東京都新宿区新宿４-2-23 新四Ｃurumuビル6階",
          "zipcode": "〒160-0022",
          "access": "-"
        },
        {
          "id": "sbc_016",
          "name": "渋谷院",
          "address": "東京都渋谷区宇田川町20-11 渋谷三葉ビル5階",
          "zipcode": "〒150-0042",
          "access": "-"
        },
        {
          "id": "sbc_017",
          "name": "表参道院",
          "address": "東京都港区北青山3-11-7AOビル7階",
          "zipcode": "〒107-0061",
          "access": "-"
        },
        {
          "id": "sbc_018",
          "name": "品川院",
          "address": "東京都港区港南2-4-3 三和港南ビル3F",
          "zipcode": "〒108-0075",
          "access": "-"
        },
        {
          "id": "sbc_019",
          "name": "新橋銀座口院",
          "address": "東京都港区新橋1-12-9 新橋プレイス9F",
          "zipcode": "〒105-0004",
          "access": "-"
        },
        {
          "id": "sbc_020",
          "name": "銀座院",
          "address": "東京都中央区銀座四丁目3番1号 並木館9階",
          "zipcode": "〒104-0061",
          "access": "-"
        },
        {
          "id": "sbc_021",
          "name": "銀座一丁目院",
          "address": "東京都中央区銀座1-3-9 マルイト銀座ビル2階",
          "zipcode": "〒104-0061",
          "access": "-"
        },
        {
          "id": "sbc_022",
          "name": "Regno銀座院",
          "address": "東京都中央区銀座5‐10‐2GINZA MISS PARIS3階",
          "zipcode": "〒104-0061",
          "access": "-"
        },
        {
          "id": "sbc_023",
          "name": "池袋西口院",
          "address": "東京都豊島区池袋2-6-1 KDX池袋ビル3F",
          "zipcode": "〒171-0014",
          "access": "-"
        },
        {
          "id": "sbc_024",
          "name": "池袋東口院",
          "address": "東京都豊島区南池袋一丁目19番地5号 Gビル南池袋01 7階",
          "zipcode": "〒171-0022",
          "access": "-"
        },
        {
          "id": "sbc_025",
          "name": "錦糸町院",
          "address": "東京都墨田区江東橋4丁目27番14号 楽天地ビル２Ｆ",
          "zipcode": "〒130-8535",
          "access": "-"
        },
        {
          "id": "sbc_026",
          "name": "上野院",
          "address": "東京都台東区上野1-20-11 鈴乃屋本店ビル8F",
          "zipcode": "〒110-0005",
          "access": "-"
        },
        {
          "id": "sbc_027",
          "name": "秋葉原院",
          "address": "東京都台東区秋葉原1-1 秋葉原ビジネスセンター6階",
          "zipcode": "〒110-0006",
          "access": "-"
        },
        {
          "id": "sbc_028",
          "name": "自由が丘院",
          "address": "東京都目黒区自由が丘2-13-6 TOKYU REIT 自由が丘スクエア4階",
          "zipcode": "〒152-0035",
          "access": "-"
        },
        {
          "id": "sbc_029",
          "name": "二子玉川院",
          "address": "東京都世田谷区玉川3-11-7 T's SQUARE 2階",
          "zipcode": "〒158-0094",
          "access": "-"
        },
        {
          "id": "sbc_030",
          "name": "東京蒲田院",
          "address": "東京都大田区蒲田5-17-1 ヒューリック蒲田ビル8F",
          "zipcode": "〒144-0052",
          "access": "-"
        },
        {
          "id": "sbc_031",
          "name": "赤羽院",
          "address": "東京都北区赤羽1－9－3 赤羽駅前ビル7階",
          "zipcode": "〒115-0045",
          "access": "-"
        },
        {
          "id": "sbc_032",
          "name": "豊洲院",
          "address": "東京都江東区豊洲5-6-36 豊洲プライムスクエア5F",
          "zipcode": "〒135-0061",
          "access": "-"
        },
        {
          "id": "sbc_033",
          "name": "北千住院",
          "address": "東京都足立区千住3丁目74−1 第2白亜ビル2階",
          "zipcode": "〒120-0034",
          "access": "-"
        },
        {
          "id": "sbc_034",
          "name": "西葛西院",
          "address": "東京都江戸川区西葛西3-18-1 1階",
          "zipcode": "〒134-0088",
          "access": "-"
        },
        {
          "id": "sbc_035",
          "name": "町田院",
          "address": "東京都町田市原町田6－9－7 アエタ町田7階",
          "zipcode": "〒194-0013",
          "access": "-"
        },
        {
          "id": "sbc_036",
          "name": "吉祥寺院",
          "address": "東京都武蔵野市吉祥寺本町1丁目8－22 吉祥寺パレスビル3階",
          "zipcode": "〒180-0004",
          "access": "-"
        },
        {
          "id": "sbc_037",
          "name": "調布院",
          "address": "東京都調布市小島町1丁目35-5 調布アミックスビル4階",
          "zipcode": "〒182-0026",
          "access": "-"
        },
        {
          "id": "sbc_038",
          "name": "立川院",
          "address": "東京都立川市柴崎町3‐6‐23 LXビル４F",
          "zipcode": "〒190-0023",
          "access": "-"
        },
        {
          "id": "sbc_039",
          "name": "八王子院",
          "address": "東京都八王子市旭町11－8 アクセスビル７F",
          "zipcode": "〒192-0083",
          "access": "-"
        },
        {
          "id": "sbc_040",
          "name": "武蔵小杉院",
          "address": "神奈川県川崎市中原区市ノ坪449‐3シティータワー武蔵小杉2F",
          "zipcode": "〒211-0016",
          "access": "-"
        },
        {
          "id": "sbc_041",
          "name": "川崎院",
          "address": "神奈川県川崎市川崎区日進町1‐11 川崎ルフロン8F",
          "zipcode": "〒210-0024",
          "access": "-"
        },
        {
          "id": "sbc_042",
          "name": "新百合ヶ丘院",
          "address": "神奈川県川崎市麻生区上麻生一丁目20番1号 小田急アコルデ新百合ヶ丘7階",
          "zipcode": "〒215-0021",
          "access": "-"
        },
        {
          "id": "sbc_043",
          "name": "横浜院",
          "address": "神奈川県横浜市神奈川区鶴屋町2-23-2 TSプラザビル3F",
          "zipcode": "〒221-0835",
          "access": "-"
        },
        {
          "id": "sbc_044",
          "name": "横浜東口院",
          "address": "神奈川県横浜市西区高島2‐19‐12 スカイビル16階",
          "zipcode": "〒220-0011",
          "access": "-"
        },
        {
          "id": "sbc_045",
          "name": "横浜青葉台院",
          "address": "神奈川県横浜市青葉区青葉台二丁目5番地14 SMBC青葉台ビル6階",
          "zipcode": "〒227-0062",
          "access": "-"
        },
        {
          "id": "sbc_046",
          "name": "イオン横浜西口院",
          "address": "神奈川県横浜市西区南幸2丁目16-1 イオン CeeU Yokohama 9階",
          "zipcode": "〒220-0005",
          "access": "-"
        },
        {
          "id": "sbc_047",
          "name": "新横浜院",
          "address": "神奈川県横浜市港北区新横浜三丁目6-2 新横浜ゲートサイド7階",
          "zipcode": "〒222-0033",
          "access": "-"
        },
        {
          "id": "sbc_048",
          "name": "本厚木院",
          "address": "神奈川県厚木市中町2丁目2－1 本厚木ミロード2 7階",
          "zipcode": "〒243-0018",
          "access": "-"
        },
        {
          "id": "sbc_049",
          "name": "藤沢院",
          "address": "神奈川県藤沢市南藤沢3-12 クリオ藤沢4F",
          "zipcode": "〒251-0055",
          "access": "-"
        },
        {
          "id": "sbc_050",
          "name": "辻堂アカデミア",
          "address": "神奈川県藤沢市辻堂神台1-3-39 オザワビル4F",
          "zipcode": "〒251-0041",
          "access": "-"
        },
        {
          "id": "sbc_051",
          "name": "橋本院",
          "address": "神奈川県相模原市緑区橋本3-19-3 ヴィンテージ橋本２F",
          "zipcode": "〒252-0143",
          "access": "-"
        },
        {
          "id": "sbc_052",
          "name": "横須賀中央院",
          "address": "神奈川県横須賀市大滝町2-15-1 横須賀東相ビル4階",
          "zipcode": "〒238-0008",
          "access": "-"
        },
        {
          "id": "sbc_053",
          "name": "小田原院",
          "address": "神奈川県小田原市城山1-4-1 城山タワープラザ3階",
          "zipcode": "〒250-0045",
          "access": "-"
        },
        {
          "id": "sbc_054",
          "name": "柏院",
          "address": "千葉県柏市柏1-7-1 Day Oneタワー2階",
          "zipcode": "〒277-0005",
          "access": "-"
        },
        {
          "id": "sbc_055",
          "name": "松戸院",
          "address": "千葉県松戸市松戸1307-1 松戸ビル2階",
          "zipcode": "〒271-0092",
          "access": "-"
        },
        {
          "id": "sbc_056",
          "name": "新浦安院",
          "address": "千葉県浦安市入船一丁目５番2号 プライムタワー新浦安20階",
          "zipcode": "〒279-0012",
          "access": "-"
        },
        {
          "id": "sbc_057",
          "name": "船橋院",
          "address": "千葉県船橋市本町4-2-9 菅野屋船橋ビル4階",
          "zipcode": "〒273-0005",
          "access": "-"
        },
        {
          "id": "sbc_058",
          "name": "千葉センシティ院",
          "address": "千葉県千葉市中央区新町1000番地 センシティビルディング9階",
          "zipcode": "〒260-0028",
          "access": "-"
        },
        {
          "id": "sbc_059",
          "name": "流山おおたかの森院",
          "address": "千葉県流山市おおたかの森西1丁目2－3 アゼリアテラス901",
          "zipcode": "〒270-0128",
          "access": "-"
        },
        {
          "id": "sbc_060",
          "name": "津田沼院",
          "address": "千葉県習志野市津田沼1丁目2番13号 OKビル3階",
          "zipcode": "〒275-0016",
          "access": "-"
        },
        {
          "id": "sbc_061",
          "name": "大宮西口院",
          "address": "埼玉県さいたま市大宮区桜木町一丁目6番地2 大宮スカイビル そごう大宮店 本館13階",
          "zipcode": "〒330-0854",
          "access": "-"
        },
        {
          "id": "sbc_062",
          "name": "大宮東口院",
          "address": "埼玉県さいたま市大宮区大門町2-22-1 TAIGAビル3階",
          "zipcode": "〒330-0846",
          "access": "-"
        },
        {
          "id": "sbc_063",
          "name": "南越谷院",
          "address": "埼玉県越谷市南越谷1丁目19-1 LOC‘S南越谷 5階",
          "zipcode": "〒343-0845",
          "access": "-"
        },
        {
          "id": "sbc_064",
          "name": "浦和院",
          "address": "埼玉県さいたま市浦和区高砂２丁目８−16 浦和ガーデンビル3階",
          "zipcode": "〒330-0063",
          "access": "-"
        },
        {
          "id": "sbc_065",
          "name": "所沢院",
          "address": "埼玉県所沢市日吉町11-19基和ビル5階",
          "zipcode": "〒359-1123",
          "access": "-"
        },
        {
          "id": "sbc_066",
          "name": "川口院",
          "address": "埼玉県川口市栄町3-10-1 長堀ビル5階",
          "zipcode": "〒332-0017",
          "access": "-"
        },
        {
          "id": "sbc_067",
          "name": "川越院",
          "address": "埼玉県川越市脇田本町1-5 川越ウェストビル7F",
          "zipcode": "〒350-1123",
          "access": "-"
        },
        {
          "id": "sbc_068",
          "name": "熊谷院",
          "address": "埼玉県熊谷市筑波3-195 熊谷駅前ビル2階",
          "zipcode": "〒360-0037",
          "access": "-"
        },
        {
          "id": "sbc_069",
          "name": "名古屋駅本院",
          "address": "愛知県名古屋市中村区名駅四丁目８番26号 エニシオ名駅3階",
          "zipcode": "〒450-0002",
          "access": "-"
        },
        {
          "id": "sbc_070",
          "name": "名古屋院",
          "address": "愛知県名古屋市中村区名駅3-26-8 KDX名古屋駅前ビル12F",
          "zipcode": "〒450-0002",
          "access": "-"
        },
        {
          "id": "sbc_071",
          "name": "名古屋栄院",
          "address": "愛知県名古屋市中区錦3-16-27 栄パークサイドプレイス6階",
          "zipcode": "〒460-0003",
          "access": "-"
        },
        {
          "id": "sbc_072",
          "name": "金山院",
          "address": "愛知県名古屋市中区金山1-15-10 メイフィス金山駅前ビル8階",
          "zipcode": "〒460-0022",
          "access": "-"
        },
        {
          "id": "sbc_073",
          "name": "豊田院",
          "address": "愛知県豊田市喜多町3丁目110番地 コモ・スクエア・イースト2階",
          "zipcode": "〒471-0027",
          "access": "-"
        },
        {
          "id": "sbc_074",
          "name": "豊橋院",
          "address": "愛知県豊橋市駅前大通1丁目135 ココラアベニュー3階",
          "zipcode": "〒440-0888",
          "access": "-"
        },
        {
          "id": "sbc_075",
          "name": "四日市院",
          "address": "三重県四日市市諏訪栄町7-34 近鉄百貨店 四日市店8階",
          "zipcode": "〒510-8585",
          "access": "-"
        },
        {
          "id": "sbc_076",
          "name": "岐阜院",
          "address": "岐阜県岐阜市神田町9－27大岐阜ビル3階",
          "zipcode": "〒500-8833",
          "access": "-"
        },
        {
          "id": "sbc_077",
          "name": "静岡院",
          "address": "静岡県静岡市葵区御幸町6-10 静岡モディ7階",
          "zipcode": "〒420-0857",
          "access": "-"
        },
        {
          "id": "sbc_078",
          "name": "静岡南口院",
          "address": "静岡県静岡市駿河区南町10-5 地建南町ビル3F",
          "zipcode": "〒422-8067",
          "access": "-"
        },
        {
          "id": "sbc_079",
          "name": "浜松院",
          "address": "静岡県浜松市中央区旭町12-1 遠鉄百貨店 新館8階",
          "zipcode": "〒430-0927",
          "access": "-"
        },
        {
          "id": "sbc_080",
          "name": "長野院",
          "address": "長野県長野市南長野末広町1355-5 ウエストプラザ長野ビル6階",
          "zipcode": "〒380-0825",
          "access": "-"
        },
        {
          "id": "sbc_081",
          "name": "甲府院",
          "address": "山梨県甲府市丸の内1丁目1−8 セレオ甲府5階",
          "zipcode": "〒400-0031",
          "access": "-"
        },
        {
          "id": "sbc_082",
          "name": "長岡院",
          "address": "新潟県長岡市城内町一丁目611番地1 長岡駅ビル CoCoLo長岡 本館M2階",
          "zipcode": "〒940-0061",
          "access": "-"
        },
        {
          "id": "sbc_083",
          "name": "新潟院",
          "address": "新潟県新潟市中央区八千代2-1-2 ビルボードプレイス 3F",
          "zipcode": "〒950-0909",
          "access": "-"
        },
        {
          "id": "sbc_084",
          "name": "福井院",
          "address": "福井県福井市中央一丁目10－30 アクロスキューブ福井中央 2階",
          "zipcode": "〒910-0006",
          "access": "-"
        },
        {
          "id": "sbc_085",
          "name": "金沢院",
          "address": "石川県金沢市本町2-15-1 ポルテ金沢3F",
          "zipcode": "〒920-0853",
          "access": "-"
        },
        {
          "id": "sbc_086",
          "name": "富山院",
          "address": "富山県富山市桜町1丁目1番61号 マリエとやま 6階",
          "zipcode": "〒930-0003",
          "access": "-"
        },
        {
          "id": "sbc_087",
          "name": "大阪梅田院",
          "address": "大阪府大阪市北区茶屋町1-27 ABCマート梅田ビル6階",
          "zipcode": "〒530-0013",
          "access": "-"
        },
        {
          "id": "sbc_088",
          "name": "大阪心斎橋院",
          "address": "大阪府大阪市中央区心斎橋筋2-7-18 プライムスクエア心斎橋10F",
          "zipcode": "〒542-0085",
          "access": "-"
        },
        {
          "id": "sbc_089",
          "name": "大阪あべの院",
          "address": "大阪府大阪市阿倍野区阿倍野筋1-3-21 岸本ビル8Ｆ",
          "zipcode": "〒545-0052",
          "access": "-"
        },
        {
          "id": "sbc_090",
          "name": "大阪京橋院",
          "address": "大阪府大阪市都島区東野田町2-9-7 K2ビル4階",
          "zipcode": "〒534-0024",
          "access": "-"
        },
        {
          "id": "sbc_091",
          "name": "大阪なんば院",
          "address": "大阪府大阪市中央区難波5-1-60 スイスホテル南海大阪6階",
          "zipcode": "〒542-0076",
          "access": "-"
        },
        {
          "id": "sbc_092",
          "name": "大阪駅前院",
          "address": "大阪府大阪市北区曽根崎2-12-4 コフレ梅田11階",
          "zipcode": "〒530-0057",
          "access": "-"
        },
        {
          "id": "sbc_093",
          "name": "大阪堺東院",
          "address": "大阪府堺市堺区北瓦町2丁4番16号 堺富士ビル8階",
          "zipcode": "〒590-0076",
          "access": "-"
        },
        {
          "id": "sbc_094",
          "name": "枚方院",
          "address": "大阪府枚方市新町一丁目１番８号 Hirakata Woven 3階",
          "zipcode": "〒573-1191",
          "access": "-"
        },
        {
          "id": "sbc_095",
          "name": "江坂院",
          "address": "大阪府吹田市豊津町9-44 ハートランド江坂6F",
          "zipcode": "〒564-0051",
          "access": "-"
        },
        {
          "id": "sbc_096",
          "name": "京都院",
          "address": "京都府京都市下京区四条通柳馬場東入立売東町12-1 日土地京都四条通ビル5階",
          "zipcode": "〒600-8005",
          "access": "-"
        },
        {
          "id": "sbc_097",
          "name": "京都河原町院",
          "address": "京都府京都市下京区四条通寺町東入ル2丁目御旅町46番地 寺内ノースサイドビル4F",
          "zipcode": "〒600-8002",
          "access": "-"
        },
        {
          "id": "sbc_098",
          "name": "京都駅ビル院",
          "address": "京都府京都市下京区烏丸通塩小路下る東塩小路町901 京都駅ビル9階",
          "zipcode": "〒600-8216",
          "access": "-"
        },
        {
          "id": "sbc_099",
          "name": "奈良院",
          "address": "奈良県奈良市西大寺東町2-4-1 ならファミリー1階",
          "zipcode": "〒631-0821",
          "access": "-"
        },
        {
          "id": "sbc_100",
          "name": "神戸三宮院",
          "address": "兵庫県神戸市中央区三宮町1丁目4-8 関電不動産神戸三宮ビル4F",
          "zipcode": "〒650-0021",
          "access": "-"
        },
        {
          "id": "sbc_101",
          "name": "明石院",
          "address": "兵庫県明石市大明石町1丁目5－4 三井住友銀行明石ビル6階",
          "zipcode": "〒673-0891",
          "access": "-"
        },
        {
          "id": "sbc_102",
          "name": "姫路院",
          "address": "兵庫県姫路市駅前町254 姫路駅前ビル2F",
          "zipcode": "〒670-0927",
          "access": "-"
        },
        {
          "id": "sbc_103",
          "name": "西宮北口院",
          "address": "兵庫県西宮市甲風園1-10‐1 サテライトビル2 5F",
          "zipcode": "〒662-0832",
          "access": "-"
        },
        {
          "id": "sbc_104",
          "name": "和歌山院",
          "address": "和歌山県和歌山市友田町5丁目18番地 和歌山ミオ北館2階",
          "zipcode": "〒640-8342",
          "access": "-"
        },
        {
          "id": "sbc_105",
          "name": "広島院",
          "address": "広島県広島市中区八丁堀16-3 広島第一ビル6F",
          "zipcode": "〒730-0013",
          "access": "-"
        },
        {
          "id": "sbc_106",
          "name": "福山院",
          "address": "広島県福山市三之丸町30-1 さんすて福山2階",
          "zipcode": "〒720-0066",
          "access": "-"
        },
        {
          "id": "sbc_107",
          "name": "倉敷院",
          "address": "岡山県倉敷市阿知１丁目1-1 さんすて倉敷2階",
          "zipcode": "〒710-0055",
          "access": "-"
        },
        {
          "id": "sbc_108",
          "name": "岡山院",
          "address": "岡山県岡山市北区駅元町1番25号 さんすて岡山西館4F",
          "zipcode": "〒700-0024",
          "access": "-"
        },
        {
          "id": "sbc_109",
          "name": "下関院",
          "address": "山口県下関市竹崎町4丁目4番10号 大丸下関店7F",
          "zipcode": "〒750-8503",
          "access": "-"
        },
        {
          "id": "sbc_110",
          "name": "高松院",
          "address": "香川県高松市丸亀町3-13 高松丸亀町参番街西館2階",
          "zipcode": "〒760-0029",
          "access": "-"
        },
        {
          "id": "sbc_111",
          "name": "高知院",
          "address": "高知県高知市はりまや町1丁目5－1 デンテツターミナルビル6階",
          "zipcode": "〒780-0822",
          "access": "-"
        },
        {
          "id": "sbc_112",
          "name": "松山院",
          "address": "愛媛県松山市湊町4‐10‐8 BE-FLATビル3階",
          "zipcode": "〒790-0012",
          "access": "-"
        },
        {
          "id": "sbc_113",
          "name": "福岡院",
          "address": "福岡県福岡市中央区渡辺通4-9-25 Luz福岡天神7階",
          "zipcode": "〒810-0004",
          "access": "-"
        },
        {
          "id": "sbc_114",
          "name": "博多院",
          "address": "福岡県福岡市博多区博多駅東2-5-33 ゲートスクエア博多駅前 4階",
          "zipcode": "〒812-0013",
          "access": "-"
        },
        {
          "id": "sbc_115",
          "name": "久留米院",
          "address": "福岡県久留米市天神町1番地6 千歳プラザ東館3階",
          "zipcode": "〒830-0033",
          "access": "-"
        },
        {
          "id": "sbc_116",
          "name": "小倉院",
          "address": "福岡県北九州市小倉北区浅野1‐1‐1 アミュプラザ小倉4F",
          "zipcode": "〒802-0001",
          "access": "-"
        },
        {
          "id": "sbc_117",
          "name": "大分院",
          "address": "大分県大分市中央町１丁目2-17 大分OPA 3階",
          "zipcode": "〒870-0035",
          "access": "-"
        },
        {
          "id": "sbc_118",
          "name": "熊本院",
          "address": "熊本県熊本市中央区手取本町4-1 大劇会館6階",
          "zipcode": "〒860-0808",
          "access": "-"
        },
        {
          "id": "sbc_119",
          "name": "長崎院",
          "address": "長崎県長崎市尾上町1-1 アミュプラザ長崎新館4階",
          "zipcode": "〒850-0058",
          "access": "-"
        },
        {
          "id": "sbc_120",
          "name": "宮崎院",
          "address": "宮崎県宮崎市広島2-11-11 アミュプラザみやざき やま館 6F",
          "zipcode": "〒880-0806",
          "access": "-"
        },
        {
          "id": "sbc_121",
          "name": "鹿児島院",
          "address": "鹿児島県鹿児島市中町5-26 カリーノ天文館5階",
          "zipcode": "〒892-0827",
          "access": "-"
        },
        {
          "id": "sbc_122",
          "name": "鹿児島中央院",
          "address": "鹿児島県鹿児島市武1丁目2番1号 鹿児島中央駅西口複合ビル3階",
          "zipcode": "〒890-0045",
          "access": "-"
        },
        {
          "id": "sbc_123",
          "name": "那覇院",
          "address": "沖縄県那覇市久茂地1-3-1 久茂地セントラルビル 2階",
          "zipcode": "〒900-0015",
          "access": "-"
        },
        {
          "id": "sbc_124",
          "name": "ベトナム院",
          "address": "230 Nguyen Dinh Chieu 6",
          "zipcode": "〒700000",
          "access": "-"
        }
      ]
    }
  ],
  "rankings": {
    "001": {
      "no1": "1",
      "no2": "2",
      "no3": "4",
      "no4": "3",
      "no5": "5"
    },
    "002": {
      "no1": "1",
      "no2": "3",
      "no3": "4",
      "no4": "2",
      "no5": "5"
    },
    "003": {
      "no1": "1",
      "no2": "2",
      "no3": "4",
      "no4": "3",
      "no5": "5"
    },
    "004": {
      "no1": "1",
      "no2": "2",
      "no3": "4",
      "no4": "3",
      "no5": "5"
    },
    "005": {
      "no1": "1",
      "no2": "2",
      "no3": "4",
      "no4": "3",
      "no5": "5"
    },
    "006": {
      "no1": "1",
      "no2": "2",
      "no3": "4",
      "no4": "3",
      "no5": "5"
    },
    "007": {
      "no1": "1",
      "no2": "2",
      "no3": "4",
      "no4": "3",
      "no5": "5"
    },
    "008": {
      "no1": "1",
      "no2": "2",
      "no3": "4",
      "no4": "3",
      "no5": "5"
    },
    "009": {
      "no1": "1",
      "no2": "2",
      "no3": "4",
      "no4": "3",
      "no5": "5"
    },
    "010": {
      "no1": "1",
      "no2": "2",
      "no3": "4",
      "no4": "3",
      "no5": "5"
    },
    "011": {
      "no1": "1",
      "no2": "2",
      "no3": "4",
      "no4": "3",
      "no5": "5"
    },
    "012": {
      "no1": "1",
      "no2": "2",
      "no3": "4",
      "no4": "3",
      "no5": "5"
    },
    "013": {
      "no1": "1",
      "no2": "2",
      "no3": "4",
      "no4": "3",
      "no5": "5"
    },
    "014": {
      "no1": "1",
      "no2": "2",
      "no3": "4",
      "no4": "3",
      "no5": "5"
    },
    "015": {
      "no1": "1",
      "no2": "3",
      "no3": "4",
      "no4": "2",
      "no5": "5"
    },
    "016": {
      "no1": "1",
      "no2": "3",
      "no3": "4",
      "no4": "2",
      "no5": "5"
    },
    "017": {
      "no1": "1",
      "no2": "3",
      "no3": "4",
      "no4": "2",
      "no5": "5"
    },
    "018": {
      "no1": "1",
      "no2": "3",
      "no3": "4",
      "no4": "2",
      "no5": "5"
    },
    "019": {
      "no1": "1",
      "no2": "3",
      "no3": "4",
      "no4": "2",
      "no5": "5"
    },
    "020": {
      "no1": "1",
      "no2": "3",
      "no3": "4",
      "no4": "2",
      "no5": "5"
    },
    "021": {
      "no1": "1",
      "no2": "3",
      "no3": "4",
      "no4": "2",
      "no5": "5"
    },
    "022": {
      "no1": "1",
      "no2": "3",
      "no3": "4",
      "no4": "2",
      "no5": "5"
    },
    "023": {
      "no1": "1",
      "no2": "3",
      "no3": "4",
      "no4": "2",
      "no5": "5"
    },
    "024": {
      "no1": "1",
      "no2": "3",
      "no3": "4",
      "no4": "2",
      "no5": "5"
    },
    "025": {
      "no1": "1",
      "no2": "3",
      "no3": "4",
      "no4": "2",
      "no5": "5"
    },
    "026": {
      "no1": "1",
      "no2": "3",
      "no3": "4",
      "no4": "2",
      "no5": "5"
    },
    "027": {
      "no1": "1",
      "no2": "3",
      "no3": "4",
      "no4": "2",
      "no5": "5"
    },
    "028": {
      "no1": "1",
      "no2": "3",
      "no3": "4",
      "no4": "2",
      "no5": "5"
    },
    "029": {
      "no1": "1",
      "no2": "3",
      "no3": "4",
      "no4": "2",
      "no5": "5"
    },
    "030": {
      "no1": "1",
      "no2": "3",
      "no3": "4",
      "no4": "2",
      "no5": "5"
    },
    "031": {
      "no1": "1",
      "no2": "3",
      "no3": "4",
      "no4": "2",
      "no5": "5"
    },
    "032": {
      "no1": "1",
      "no2": "3",
      "no3": "4",
      "no4": "2",
      "no5": "5"
    },
    "033": {
      "no1": "1",
      "no2": "3",
      "no3": "4",
      "no4": "2",
      "no5": "5"
    },
    "034": {
      "no1": "1",
      "no2": "3",
      "no3": "4",
      "no4": "2",
      "no5": "5"
    },
    "035": {
      "no1": "1",
      "no2": "3",
      "no3": "4",
      "no4": "2",
      "no5": "5"
    },
    "036": {
      "no1": "1",
      "no2": "3",
      "no3": "4",
      "no4": "2",
      "no5": "5"
    },
    "037": {
      "no1": "1",
      "no2": "3",
      "no3": "4",
      "no4": "2",
      "no5": "5"
    },
    "038": {
      "no1": "1",
      "no2": "3",
      "no3": "4",
      "no4": "2",
      "no5": "5"
    },
    "039": {
      "no1": "1",
      "no2": "3",
      "no3": "4",
      "no4": "2",
      "no5": "5"
    },
    "040": {
      "no1": "1",
      "no2": "3",
      "no3": "4",
      "no4": "2",
      "no5": "5"
    },
    "041": {
      "no1": "1",
      "no2": "3",
      "no3": "4",
      "no4": "2",
      "no5": "5"
    },
    "042": {
      "no1": "1",
      "no2": "3",
      "no3": "4",
      "no4": "2",
      "no5": "5"
    },
    "043": {
      "no1": "1",
      "no2": "3",
      "no3": "4",
      "no4": "2",
      "no5": "5"
    },
    "044": {
      "no1": "1",
      "no2": "3",
      "no3": "4",
      "no4": "2",
      "no5": "5"
    },
    "045": {
      "no1": "1",
      "no2": "3",
      "no3": "4",
      "no4": "2",
      "no5": "5"
    },
    "046": {
      "no1": "1",
      "no2": "3",
      "no3": "4",
      "no4": "2",
      "no5": "5"
    },
    "047": {
      "no1": "1",
      "no2": "3",
      "no3": "4",
      "no4": "2",
      "no5": "5"
    },
    "048": {
      "no1": "1",
      "no2": "3",
      "no3": "4",
      "no4": "2",
      "no5": "5"
    },
    "049": {
      "no1": "1",
      "no2": "3",
      "no3": "4",
      "no4": "2",
      "no5": "5"
    },
    "050": {
      "no1": "1",
      "no2": "3",
      "no3": "4",
      "no4": "2",
      "no5": "5"
    },
    "051": {
      "no1": "1",
      "no2": "3",
      "no3": "4",
      "no4": "2",
      "no5": "5"
    },
    "052": {
      "no1": "1",
      "no2": "3",
      "no3": "4",
      "no4": "2",
      "no5": "5"
    },
    "053": {
      "no1": "1",
      "no2": "3",
      "no3": "4",
      "no4": "2",
      "no5": "5"
    },
    "054": {
      "no1": "1",
      "no2": "3",
      "no3": "4",
      "no4": "2",
      "no5": "5"
    },
    "055": {
      "no1": "1",
      "no2": "3",
      "no3": "4",
      "no4": "2",
      "no5": "5"
    },
    "056": {
      "no1": "1",
      "no2": "3",
      "no3": "4",
      "no4": "2",
      "no5": "5"
    },
    "057": {
      "no1": "1",
      "no2": "3",
      "no3": "4",
      "no4": "2",
      "no5": "5"
    },
    "058": {
      "no1": "1",
      "no2": "3",
      "no3": "4",
      "no4": "2",
      "no5": "5"
    },
    "059": {
      "no1": "1",
      "no2": "3",
      "no3": "4",
      "no4": "2",
      "no5": "5"
    },
    "060": {
      "no1": "1",
      "no2": "3",
      "no3": "4",
      "no4": "2",
      "no5": "5"
    },
    "061": {
      "no1": "1",
      "no2": "3",
      "no3": "4",
      "no4": "2",
      "no5": "5"
    },
    "062": {
      "no1": "1",
      "no2": "3",
      "no3": "4",
      "no4": "2",
      "no5": "5"
    },
    "063": {
      "no1": "1",
      "no2": "3",
      "no3": "4",
      "no4": "2",
      "no5": "5"
    }
  },
  "storeViews": {
    "001": {
      "clinic_1": [
        "dio_001"
      ],
      "clinic_2": [
        "eminal_001",
        "eminal_002"
      ],
      "clinic_3": [
        "-"
      ],
      "clinic_4": [
        "-"
      ],
      "clinic_5": [
        "sbc_001",
        "sbc_002",
        "sbc_003"
      ]
    },
    "002": {
      "clinic_1": [
        "-"
      ],
      "clinic_2": [
        "eminal_003"
      ],
      "clinic_3": [
        "-"
      ],
      "clinic_4": [
        "-"
      ],
      "clinic_5": [
        "sbc_004"
      ]
    },
    "003": {
      "clinic_1": [
        "-"
      ],
      "clinic_2": [
        "eminal_004"
      ],
      "clinic_3": [
        "-"
      ],
      "clinic_4": [
        "-"
      ],
      "clinic_5": [
        "-"
      ]
    },
    "004": {
      "clinic_1": [
        "dio_002"
      ],
      "clinic_2": [
        "eminal_005"
      ],
      "clinic_3": [
        "-"
      ],
      "clinic_4": [
        "-"
      ],
      "clinic_5": [
        "sbc_007"
      ]
    },
    "005": {
      "clinic_1": [
        "-"
      ],
      "clinic_2": [
        "eminal_006"
      ],
      "clinic_3": [
        "-"
      ],
      "clinic_4": [
        "-"
      ],
      "clinic_5": [
        "sbc_005"
      ]
    },
    "006": {
      "clinic_1": [
        "-"
      ],
      "clinic_2": [
        "-"
      ],
      "clinic_3": [
        "-"
      ],
      "clinic_4": [
        "-"
      ],
      "clinic_5": [
        "sbc_006"
      ]
    },
    "007": {
      "clinic_1": [
        "-"
      ],
      "clinic_2": [
        "eminal_007"
      ],
      "clinic_3": [
        "-"
      ],
      "clinic_4": [
        "-"
      ],
      "clinic_5": [
        "sbc_008",
        "sbc_009",
        "sbc_010"
      ]
    },
    "008": {
      "clinic_1": [
        "-"
      ],
      "clinic_2": [
        "eminal_008"
      ],
      "clinic_3": [
        "-"
      ],
      "clinic_4": [
        "-"
      ],
      "clinic_5": [
        "sbc_013"
      ]
    },
    "009": {
      "clinic_1": [
        "-"
      ],
      "clinic_2": [
        "eminal_009"
      ],
      "clinic_3": [
        "-"
      ],
      "clinic_4": [
        "-"
      ],
      "clinic_5": [
        "sbc_011"
      ]
    },
    "010": {
      "clinic_1": [
        "-"
      ],
      "clinic_2": [
        "eminal_010"
      ],
      "clinic_3": [
        "-"
      ],
      "clinic_4": [
        "-"
      ],
      "clinic_5": [
        "sbc_012"
      ]
    },
    "011": {
      "clinic_1": [
        "dio_010"
      ],
      "clinic_2": [
        "eminal_011"
      ],
      "clinic_3": [
        "-"
      ],
      "clinic_4": [
        "-"
      ],
      "clinic_5": [
        "sbc_061",
        "sbc_062",
        "sbc_063",
        "sbc_064",
        "sbc_065",
        "sbc_066",
        "sbc_067",
        "sbc_068"
      ]
    },
    "012": {
      "clinic_1": [
        "dio_013"
      ],
      "clinic_2": [
        "eminal_012",
        "eminal_013"
      ],
      "clinic_3": [
        "-"
      ],
      "clinic_4": [
        "-"
      ],
      "clinic_5": [
        "sbc_054",
        "sbc_055",
        "sbc_056",
        "sbc_057",
        "sbc_058",
        "sbc_059",
        "sbc_060"
      ]
    },
    "013": {
      "clinic_1": [
        "dio_003",
        "dio_004",
        "dio_005",
        "dio_006",
        "dio_007",
        "dio_008",
        "dio_009"
      ],
      "clinic_2": [
        "eminal_014",
        "eminal_015",
        "eminal_016",
        "eminal_017",
        "eminal_018",
        "eminal_019",
        "eminal_021",
        "eminal_022",
        "eminal_023"
      ],
      "clinic_3": [
        "urara_001",
        "urara_002"
      ],
      "clinic_4": [
        "lieto_001"
      ],
      "clinic_5": [
        "sbc_014",
        "sbc_015",
        "sbc_016",
        "sbc_017",
        "sbc_018",
        "sbc_019",
        "sbc_020",
        "sbc_021",
        "sbc_022",
        "sbc_023",
        "sbc_024",
        "sbc_025",
        "sbc_026",
        "sbc_027",
        "sbc_028",
        "sbc_029",
        "sbc_030",
        "sbc_031",
        "sbc_032",
        "sbc_033",
        "sbc_034",
        "sbc_035",
        "sbc_036",
        "sbc_037",
        "sbc_038",
        "sbc_039"
      ]
    },
    "014": {
      "clinic_1": [
        "dio_011",
        "dio_012"
      ],
      "clinic_2": [
        "eminal_024",
        "eminal_025"
      ],
      "clinic_3": [
        "-"
      ],
      "clinic_4": [
        "-"
      ],
      "clinic_5": [
        "sbc_040",
        "sbc_041",
        "sbc_042",
        "sbc_043",
        "sbc_044",
        "sbc_045",
        "sbc_046",
        "sbc_047",
        "sbc_048",
        "sbc_049",
        "sbc_050",
        "sbc_051",
        "sbc_052",
        "sbc_053"
      ]
    },
    "015": {
      "clinic_1": [
        "-"
      ],
      "clinic_2": [
        "eminal_026"
      ],
      "clinic_3": [
        "-"
      ],
      "clinic_4": [
        "-"
      ],
      "clinic_5": [
        "sbc_082",
        "sbc_083"
      ]
    },
    "016": {
      "clinic_1": [
        "-"
      ],
      "clinic_2": [
        "eminal_027"
      ],
      "clinic_3": [
        "-"
      ],
      "clinic_4": [
        "-"
      ],
      "clinic_5": [
        "sbc_086"
      ]
    },
    "017": {
      "clinic_1": [
        "-"
      ],
      "clinic_2": [
        "eminal_028"
      ],
      "clinic_3": [
        "-"
      ],
      "clinic_4": [
        "-"
      ],
      "clinic_5": [
        "sbc_085"
      ]
    },
    "018": {
      "clinic_1": [
        "-"
      ],
      "clinic_2": [
        "eminal_029"
      ],
      "clinic_3": [
        "-"
      ],
      "clinic_4": [
        "-"
      ],
      "clinic_5": [
        "sbc_084"
      ]
    },
    "019": {
      "clinic_1": [
        "-"
      ],
      "clinic_2": [
        "-"
      ],
      "clinic_3": [
        "-"
      ],
      "clinic_4": [
        "-"
      ],
      "clinic_5": [
        "sbc_081"
      ]
    },
    "020": {
      "clinic_1": [
        "-"
      ],
      "clinic_2": [
        "eminal_030"
      ],
      "clinic_3": [
        "-"
      ],
      "clinic_4": [
        "-"
      ],
      "clinic_5": [
        "sbc_080"
      ]
    },
    "021": {
      "clinic_1": [
        "-"
      ],
      "clinic_2": [
        "eminal_031"
      ],
      "clinic_3": [
        "-"
      ],
      "clinic_4": [
        "-"
      ],
      "clinic_5": [
        "sbc_076"
      ]
    },
    "022": {
      "clinic_1": [
        "-"
      ],
      "clinic_2": [
        "eminal_032",
        "eminal_033"
      ],
      "clinic_3": [
        "-"
      ],
      "clinic_4": [
        "-"
      ],
      "clinic_5": [
        "sbc_077",
        "sbc_078",
        "sbc_079"
      ]
    },
    "023": {
      "clinic_1": [
        "dio_014",
        "dio_015"
      ],
      "clinic_2": [
        "eminal_034",
        "eminal_035"
      ],
      "clinic_3": [
        "-"
      ],
      "clinic_4": [
        "-"
      ],
      "clinic_5": [
        "sbc_069",
        "sbc_070",
        "sbc_071",
        "sbc_072",
        "sbc_073",
        "sbc_074"
      ]
    },
    "024": {
      "clinic_1": [
        "-"
      ],
      "clinic_2": [
        "eminal_036"
      ],
      "clinic_3": [
        "-"
      ],
      "clinic_4": [
        "-"
      ],
      "clinic_5": [
        "sbc_075"
      ]
    },
    "025": {
      "clinic_1": [
        "-"
      ],
      "clinic_2": [
        "eminal_037"
      ],
      "clinic_3": [
        "-"
      ],
      "clinic_4": [
        "-"
      ],
      "clinic_5": [
        "-"
      ]
    },
    "026": {
      "clinic_1": [
        "-"
      ],
      "clinic_2": [
        "eminal_038"
      ],
      "clinic_3": [
        "-"
      ],
      "clinic_4": [
        "-"
      ],
      "clinic_5": [
        "sbc_096",
        "sbc_097",
        "sbc_098"
      ]
    },
    "027": {
      "clinic_1": [
        "dio_017",
        "dio_019",
        "dio_020",
        "dio_021"
      ],
      "clinic_2": [
        "eminal_039",
        "eminal_040",
        "eminal_041"
      ],
      "clinic_3": [
        "-"
      ],
      "clinic_4": [
        "-"
      ],
      "clinic_5": [
        "sbc_087",
        "sbc_088",
        "sbc_089",
        "sbc_090",
        "sbc_091",
        "sbc_092",
        "sbc_093",
        "sbc_094",
        "sbc_095"
      ]
    },
    "028": {
      "clinic_1": [
        "dio_018"
      ],
      "clinic_2": [
        "eminal_042",
        "eminal_043"
      ],
      "clinic_3": [
        "-"
      ],
      "clinic_4": [
        "-"
      ],
      "clinic_5": [
        "sbc_100",
        "sbc_101",
        "sbc_102",
        "sbc_103"
      ]
    },
    "029": {
      "clinic_1": [
        "-"
      ],
      "clinic_2": [
        "eminal_044"
      ],
      "clinic_3": [
        "-"
      ],
      "clinic_4": [
        "-"
      ],
      "clinic_5": [
        "sbc_099"
      ]
    },
    "030": {
      "clinic_1": [
        "-"
      ],
      "clinic_2": [
        "eminal_045"
      ],
      "clinic_3": [
        "-"
      ],
      "clinic_4": [
        "-"
      ],
      "clinic_5": [
        "sbc_104"
      ]
    },
    "031": {
      "clinic_1": [
        "-"
      ],
      "clinic_2": [
        "-"
      ],
      "clinic_3": [
        "-"
      ],
      "clinic_4": [
        "-"
      ],
      "clinic_5": [
        "-"
      ]
    },
    "032": {
      "clinic_1": [
        "-"
      ],
      "clinic_2": [
        "-"
      ],
      "clinic_3": [
        "-"
      ],
      "clinic_4": [
        "-"
      ],
      "clinic_5": [
        "-"
      ]
    },
    "033": {
      "clinic_1": [
        "-"
      ],
      "clinic_2": [
        "eminal_046"
      ],
      "clinic_3": [
        "-"
      ],
      "clinic_4": [
        "-"
      ],
      "clinic_5": [
        "sbc_107",
        "sbc_108"
      ]
    },
    "034": {
      "clinic_1": [
        "dio_022"
      ],
      "clinic_2": [
        "eminal_047"
      ],
      "clinic_3": [
        "-"
      ],
      "clinic_4": [
        "-"
      ],
      "clinic_5": [
        "sbc_105",
        "sbc_106"
      ]
    },
    "035": {
      "clinic_1": [
        "-"
      ],
      "clinic_2": [
        "eminal_048"
      ],
      "clinic_3": [
        "-"
      ],
      "clinic_4": [
        "-"
      ],
      "clinic_5": [
        "sbc_109"
      ]
    },
    "036": {
      "clinic_1": [
        "-"
      ],
      "clinic_2": [
        "eminal_049"
      ],
      "clinic_3": [
        "-"
      ],
      "clinic_4": [
        "-"
      ],
      "clinic_5": [
        "-"
      ]
    },
    "037": {
      "clinic_1": [
        "-"
      ],
      "clinic_2": [
        "eminal_050"
      ],
      "clinic_3": [
        "-"
      ],
      "clinic_4": [
        "-"
      ],
      "clinic_5": [
        "sbc_110"
      ]
    },
    "038": {
      "clinic_1": [
        "-"
      ],
      "clinic_2": [
        "eminal_051"
      ],
      "clinic_3": [
        "-"
      ],
      "clinic_4": [
        "-"
      ],
      "clinic_5": [
        "sbc_112"
      ]
    },
    "039": {
      "clinic_1": [
        "-"
      ],
      "clinic_2": [
        "eminal_052"
      ],
      "clinic_3": [
        "-"
      ],
      "clinic_4": [
        "-"
      ],
      "clinic_5": [
        "sbc_111"
      ]
    },
    "040": {
      "clinic_1": [
        "dio_023"
      ],
      "clinic_2": [
        "eminal_053",
        "eminal_054",
        "eminal_055",
        "eminal_056"
      ],
      "clinic_3": [
        "-"
      ],
      "clinic_4": [
        "-"
      ],
      "clinic_5": [
        "sbc_113",
        "sbc_114",
        "sbc_115",
        "sbc_116"
      ]
    },
    "041": {
      "clinic_1": [
        "-"
      ],
      "clinic_2": [
        "-"
      ],
      "clinic_3": [
        "-"
      ],
      "clinic_4": [
        "-"
      ],
      "clinic_5": [
        "-"
      ]
    },
    "042": {
      "clinic_1": [
        "-"
      ],
      "clinic_2": [
        "eminal_057",
        "eminal_058"
      ],
      "clinic_3": [
        "-"
      ],
      "clinic_4": [
        "-"
      ],
      "clinic_5": [
        "sbc_119"
      ]
    },
    "043": {
      "clinic_1": [
        "-"
      ],
      "clinic_2": [
        "eminal_060"
      ],
      "clinic_3": [
        "-"
      ],
      "clinic_4": [
        "-"
      ],
      "clinic_5": [
        "sbc_118"
      ]
    },
    "044": {
      "clinic_1": [
        "-"
      ],
      "clinic_2": [
        "eminal_059"
      ],
      "clinic_3": [
        "-"
      ],
      "clinic_4": [
        "-"
      ],
      "clinic_5": [
        "sbc_117"
      ]
    },
    "045": {
      "clinic_1": [
        "-"
      ],
      "clinic_2": [
        "eminal_061"
      ],
      "clinic_3": [
        "-"
      ],
      "clinic_4": [
        "-"
      ],
      "clinic_5": [
        "sbc_120"
      ]
    },
    "046": {
      "clinic_1": [
        "-"
      ],
      "clinic_2": [
        "eminal_062"
      ],
      "clinic_3": [
        "-"
      ],
      "clinic_4": [
        "-"
      ],
      "clinic_5": [
        "sbc_121",
        "sbc_122"
      ]
    },
    "047": {
      "clinic_1": [
        "-"
      ],
      "clinic_2": [
        "eminal_063"
      ],
      "clinic_3": [
        "-"
      ],
      "clinic_4": [
        "-"
      ],
      "clinic_5": [
        "sbc_123"
      ]
    },
    "048": {
      "clinic_1": [
        "dio_008"
      ],
      "clinic_2": [
        "eminal_014_eminal_015"
      ],
      "clinic_3": [
        "urara_001"
      ],
      "clinic_4": [
        "-"
      ],
      "clinic_5": [
        "sbc_014_sbc_015"
      ]
    },
    "049": {
      "clinic_1": [
        "dio_009"
      ],
      "clinic_2": [
        "eminal_016_eminal_017"
      ],
      "clinic_3": [
        "-"
      ],
      "clinic_4": [
        "-"
      ],
      "clinic_5": [
        "sbc_016_sbc_017"
      ]
    },
    "050": {
      "clinic_1": [
        "-"
      ],
      "clinic_2": [
        "-"
      ],
      "clinic_3": [
        "-"
      ],
      "clinic_4": [
        "-"
      ],
      "clinic_5": [
        "sbc_026_sbc_027"
      ]
    },
    "051": {
      "clinic_1": [
        "dio_006"
      ],
      "clinic_2": [
        "eminal_021"
      ],
      "clinic_3": [
        "-"
      ],
      "clinic_4": [
        "-"
      ],
      "clinic_5": [
        "sbc_026_sbc_027"
      ]
    },
    "052": {
      "clinic_1": [
        "dio_007"
      ],
      "clinic_2": [
        "eminal_019_eminal_020"
      ],
      "clinic_3": [
        "-"
      ],
      "clinic_4": [
        "lieto_001"
      ],
      "clinic_5": [
        "sbc_023_sbc_024"
      ]
    },
    "053": {
      "clinic_1": [
        "-"
      ],
      "clinic_2": [
        "-"
      ],
      "clinic_3": [
        "-"
      ],
      "clinic_4": [
        "-"
      ],
      "clinic_5": [
        "-"
      ]
    },
    "054": {
      "clinic_1": [
        "-"
      ],
      "clinic_2": [
        "eminal_016_eminal_017"
      ],
      "clinic_3": [
        "-"
      ],
      "clinic_4": [
        "-"
      ],
      "clinic_5": [
        "-"
      ]
    },
    "055": {
      "clinic_1": [
        "-"
      ],
      "clinic_2": [
        "-"
      ],
      "clinic_3": [
        "-"
      ],
      "clinic_4": [
        "-"
      ],
      "clinic_5": [
        "-"
      ]
    },
    "056": {
      "clinic_1": [
        "-"
      ],
      "clinic_2": [
        "-"
      ],
      "clinic_3": [
        "-"
      ],
      "clinic_4": [
        "-"
      ],
      "clinic_5": [
        "-"
      ]
    },
    "057": {
      "clinic_1": [
        "-"
      ],
      "clinic_2": [
        "-"
      ],
      "clinic_3": [
        "-"
      ],
      "clinic_4": [
        "-"
      ],
      "clinic_5": [
        "-"
      ]
    },
    "058": {
      "clinic_1": [
        "-"
      ],
      "clinic_2": [
        "-"
      ],
      "clinic_3": [
        "-"
      ],
      "clinic_4": [
        "-"
      ],
      "clinic_5": [
        "-"
      ]
    },
    "059": {
      "clinic_1": [
        "dio_004"
      ],
      "clinic_2": [
        "eminal_022"
      ],
      "clinic_3": [
        "-"
      ],
      "clinic_4": [
        "-"
      ],
      "clinic_5": [
        "sbc_038"
      ]
    },
    "060": {
      "clinic_1": [
        "-"
      ],
      "clinic_2": [
        "-"
      ],
      "clinic_3": [
        "-"
      ],
      "clinic_4": [
        "-"
      ],
      "clinic_5": [
        "sbc_036"
      ]
    },
    "061": {
      "clinic_1": [
        "-"
      ],
      "clinic_2": [
        "-"
      ],
      "clinic_3": [
        "-"
      ],
      "clinic_4": [
        "-"
      ],
      "clinic_5": [
        "-"
      ]
    },
    "062": {
      "clinic_1": [
        "-"
      ],
      "clinic_2": [
        "eminal_023"
      ],
      "clinic_3": [
        "-"
      ],
      "clinic_4": [
        "-"
      ],
      "clinic_5": [
        "sbc_035"
      ]
    },
    "063": {
      "clinic_1": [
        "-"
      ],
      "clinic_2": [
        "-"
      ],
      "clinic_3": [
        "-"
      ],
      "clinic_4": [
        "-"
      ],
      "clinic_5": [
        "sbc_037"
      ]
    }
  },
  "campaigns": [
    {
      "id": "0",
      "regionId": "013",
      "clinicId": "1",
      "title": "DIOクリニック東京限定キャンペーン",
      "headerText": "INFORMATION!",
      "logoSrc": "/img/dio-logo.png",
      "logoAlt": "DIOクリニック",
      "description": "【ランキング1位獲得記念】<br>全身脱毛5回コースが<br>特別価格で提供中！",
      "ctaText": "DIO公式はこちら",
      "ctaUrl": "https://dio-clinic.jp/campaign/tokyo",
      "footerText": "東京で最も選ばれているクリニック！"
    },
    {
      "id": "1",
      "regionId": "013",
      "clinicId": "2",
      "title": "フレイアの6周年記念",
      "headerText": "INFORMATION!",
      "logoSrc": "/img/info_logo.png",
      "logoAlt": "FREY-A",
      "description": "人気プランが最大10万円OFF<br>ペア・学割・のりかえ割併用も<br>OK♪",
      "ctaText": "フレイア公式はこちら",
      "ctaUrl": "https://xn--eckp2g630n3ukyzxne8a.com/freya_url?page=vio-iryou&p=quick_bt&location=tokyo&no=ivio-kantou&gclid=EAIaIQobChMIqNGJ5qWbjgMVIcJMAh2n5DtZEAAYAyAAEgJNsfD_BwE&ca=11027584297&gr=110882177929&k=kwd-407066983568&sid=1752560034179.128009585659",
      "footerText": "コスパと効果のどっちも譲れない人におすすめ！"
    },
    {
      "id": "2",
      "regionId": "014",
      "clinicId": "2",
      "title": "フレイアの6周年記念",
      "headerText": "INFORMATION!",
      "logoSrc": "/img/info_logo.png",
      "logoAlt": "FREY-A",
      "description": "人気プランが最大10万円OFF<br>ペア・学割・のりかえ割併用も<br>OK♪",
      "ctaText": "フレイア公式はコチラ",
      "ctaUrl": "https://xn--eckp2g630n3ukyzxne8a.com/freya_url?page=vio-iryou&p=quick_bt&location=kanagawa&no=ivio-kantou&gclid=EAIaIQobChMIqNGJ5qWbjgMVIcJMAh2n5DtZEAAYAyAAEgJNsfD_BwE&ca=11027584297&gr=110882177929&k=kwd-407066983568&sid=1752560034179.128009585659",
      "footerText": "コスパと効果のどっちも譲れない人におすすめ！"
    },
    {
      "id": "3",
      "regionId": "012",
      "clinicId": "5",
      "title": "湘南美容クリニック特別プラン",
      "headerText": "SPECIAL OFFER!",
      "logoSrc": "/img/shonan-logo.png",
      "logoAlt": "湘南美容クリニック",
      "description": "全身脱毛6回コースが<br>特別価格で受けられる<br>期間限定キャンペーン！",
      "ctaText": "湘南美容クリニック公式サイト",
      "ctaUrl": "https://www.s-b-c.net/",
      "footerText": "信頼と実績の湘南美容クリニック"
    },
    {
      "id": "3",
      "regionId": "013",
      "clinicId": "4",
      "title": "リエートクリニック東京院",
      "headerText": "SPECIAL OFFER!",
      "logoSrc": "/img/lieto-logo.png",
      "logoAlt": "リエートクリニック",
      "description": "【ランキング3位記念】<br>VIO脱毛5回コースが<br>今なら半額で受けられる！",
      "ctaText": "リエート公式はこちら",
      "ctaUrl": "https://lieto-clinic.jp/tokyo",
      "footerText": "東京で話題の美容クリニック"
    },
    {
      "id": "4",
      "regionId": "027",
      "clinicId": "1",
      "title": "DIOクリニック限定",
      "headerText": "今だけ限定!",
      "logoSrc": "/img/dio-logo.png",
      "logoAlt": "DIOクリニック",
      "description": "初回カウンセリング無料<br>さらに全身脱毛プランが<br>20%OFF！",
      "ctaText": "DIO公式はこちら",
      "ctaUrl": "https://dio-clinic.jp/",
      "footerText": "大阪で人気No.1の脱毛クリニック"
    },
    {
      "id": "5",
      "regionId": "001",
      "clinicId": "5",
      "title": "湘南美容クリニック札幌院",
      "headerText": "北海道限定!",
      "logoSrc": "/img/shonan-logo.png",
      "logoAlt": "湘南美容クリニック",
      "description": "札幌院オープン記念<br>全身脱毛5回コースが<br>通常価格から30%OFF",
      "ctaText": "湘南美容クリニック公式はこちら",
      "ctaUrl": "https://www.s-b-c.net/clinic/branch/sapporo/",
      "footerText": "北海道で安心の医療脱毛"
    }
  ],
  "metadata": {
    "lastUpdated": "2025-07-25T00:32:23.967Z",
    "totalClinics": 5,
    "totalStores": 213,
    "totalRegions": 63
  }
}